{"type": "FeatureCollection", "features": [{"type": "Feature", "properties": {"norad_id": 2807, "name": "OPS 7218 (TRANSIT 16)", "group": "nnss", "lat": 74.83269556252387, "lon": -4.91527393038651, "alt_km": 1048.0486997937041, "timestamp": "2025-12-16T21:38:57.442950+00:00", "meta": {"OBJECT_NAME": "OPS 7218 (TRANSIT 16)", "OBJECT_ID": "1967-048A", "EPOCH": "2025-12-16T02:02:53.095200", "MEAN_MOTION": 13.50722876, "ECCENTRICITY": 0.00220729, "INCLINATION": 89.6732, "RA_OF_ASC_NODE": 353.9053, "ARG_OF_PERICENTER": 105.1561, "MEAN_ANOMALY": 320.8187, "EPHEMERIS_TYPE": 0, "CLASSIFICATION_TYPE": "U", "NORAD_CAT_ID": 2807, "ELEMENT_SET_NO": 999, "REV_AT_EPOCH": 88321, "BSTAR": 0.00016544343, "MEAN_MOTION_DOT": 1.17e-06, "MEAN_MOTION_DDOT": 0}, "tle": {"line1": "1 02807U 67048A   25350.08533675  .00000117  00000+0  16544-3 0  9995", "line2": "2 02807  89.6732 353.9053 0022072 105.1561 320.8187 13.50722876883216"}}, "geometry": {"type": "Point", "coordinates": [-4.91527393038651, 74.83269556252387]}}, {"type": "Feature", "properties": {"norad_id": 2965, "name": "OPS 4947 (TRANSIT 17)", "group": "nnss", "lat": -0.10845984219644225, "lon": -155.8803174848646, "alt_km": 1036.857223526863, "timestamp": "2025-12-16T21:38:57.442973+00:00", "meta": {"OBJECT_NAME": "OPS 4947 (TRANSIT 17)", "OBJECT_ID": "1967-092A", "EPOCH": "2025-12-16T08:23:41.881056", "MEAN_MOTION": 13.53454374, "ECCENTRICITY": 0.0046414, "INCLINATION": 89.2493, "RA_OF_ASC_NODE": 24.1603, "ARG_OF_PERICENTER": 223.6983, "MEAN_ANOMALY": 147.3866, "EPHEMERIS_TYPE": 0, "CLASSIFICATION_TYPE": "U", "NORAD_CAT_ID": 2965, "ELEMENT_SET_NO": 999, "REV_AT_EPOCH": 87146, "BSTAR": 0.00020817322, "MEAN_MOTION_DOT": 1.52e-06, "MEAN_MOTION_DDOT": 0}, "tle": {"line1": "1 02965U 67092A   25350.34979029  .00000152  00000+0  20817-3 0  9992", "line2": "2 02965  89.2493  24.1603 0046414 223.6983 147.3866 13.53454374871467"}}, "geometry": {"type": "Point", "coordinates": [-155.8803174848646, -0.10845984219644225]}}, {"type": "Feature", "properties": {"norad_id": 3133, "name": "OPS 7034 (TRANSIT 18)", "group": "nnss", "lat": -58.294144716821606, "lon": -86.30390438552833, "alt_km": 1118.6284094621278, "timestamp": "2025-12-16T21:38:57.442987+00:00", "meta": {"OBJECT_NAME": "OPS 7034 (TRANSIT 18)", "OBJECT_ID": "1968-012A", "EPOCH": "2025-12-16T08:17:23.214048", "MEAN_MOTION": 13.51566518, "ECCENTRICITY": 0.00742032, "INCLINATION": 90.0281, "RA_OF_ASC_NODE": 273.649, "ARG_OF_PERICENTER": 158.708, "MEAN_ANOMALY": 315.7433, "EPHEMERIS_TYPE": 0, "CLASSIFICATION_TYPE": "U", "NORAD_CAT_ID": 3133, "ELEMENT_SET_NO": 999, "REV_AT_EPOCH": 56967, "BSTAR": 0.00013875973, "MEAN_MOTION_DOT": 1.02e-06, "MEAN_MOTION_DDOT": 0}, "tle": {"line1": "1 03133U 68012A   25350.34540757  .00000102  00000+0  13876-3 0  9997", "line2": "2 03133  90.0281 273.6490 0074203 158.7080 315.7433 13.51566518569678"}}, "geometry": {"type": "Point", "coordinates": [-86.30390438552833, -58.294144716821606]}}, {"type": "Feature", "properties": {"norad_id": 4507, "name": "NNSS 19 (TRANSIT 19)", "group": "nnss", "lat": -88.56669520215297, "lon": 54.32479918038942, "alt_km": 951.0234571550363, "timestamp": "2025-12-16T21:38:57.442999+00:00", "meta": {"OBJECT_NAME": "NNSS 19 (TRANSIT 19)", "OBJECT_ID": "1970-067A", "EPOCH": "2025-12-16T06:05:44.978784", "MEAN_MOTION": 13.51315825, "ECCENTRICITY": 0.01703645, "INCLINATION": 90.0053, "RA_OF_ASC_NODE": 234.5364, "ARG_OF_PERICENTER": 283.1053, "MEAN_ANOMALY": 75.1134, "EPHEMERIS_TYPE": 0, "CLASSIFICATION_TYPE": "U", "NORAD_CAT_ID": 4507, "ELEMENT_SET_NO": 999, "REV_AT_EPOCH": 72269, "BSTAR": 0.00013643958, "MEAN_MOTION_DOT": 1.04e-06, "MEAN_MOTION_DDOT": 0}, "tle": {"line1": "1 04507U 70067A   25350.25399281  .00000104  00000+0  13644-3 0  9995", "line2": "2 04507  90.0053 234.5364 0170364 283.1053  75.1134 13.51315825722696"}}, "geometry": {"type": "Point", "coordinates": [54.32479918038942, -88.56669520215297]}}, {"type": "Feature", "properties": {"norad_id": 6909, "name": "NNSS 20 (TRANSIT 20)", "group": "nnss", "lat": -78.37874685990732, "lon": -105.70790412644797, "alt_km": 1095.0443117254054, "timestamp": "2025-12-16T21:38:57.443010+00:00", "meta": {"OBJECT_NAME": "NNSS 20 (TRANSIT 20)", "OBJECT_ID": "1973-081A", "EPOCH": "2025-12-16T06:16:27.800832", "MEAN_MOTION": 13.71435959, "ECCENTRICITY": 0.01565735, "INCLINATION": 89.8562, "RA_OF_ASC_NODE": 255.0014, "ARG_OF_PERICENTER": 67.8924, "MEAN_ANOMALY": 293.8778, "EPHEMERIS_TYPE": 0, "CLASSIFICATION_TYPE": "U", "NORAD_CAT_ID": 6909, "ELEMENT_SET_NO": 999, "REV_AT_EPOCH": 80409, "BSTAR": 0.00024124508, "MEAN_MOTION_DOT": 2.48e-06, "MEAN_MOTION_DDOT": 0}, "tle": {"line1": "1 06909U 73081A   25350.26143288  .00000248  00000+0  24125-3 0  9992", "line2": "2 06909  89.8562 255.0014 0156573  67.8924 293.8778 13.71435959804096"}}, "geometry": {"type": "Point", "coordinates": [-105.70790412644797, -78.37874685990732]}}, {"type": "Feature", "properties": {"norad_id": 10457, "name": "TRANSAT", "group": "nnss", "lat": -58.81437573211986, "lon": -100.96857051622742, "alt_km": 1074.0762616677303, "timestamp": "2025-12-16T21:38:57.443021+00:00", "meta": {"OBJECT_NAME": "TRANSAT", "OBJECT_ID": "1977-106A", "EPOCH": "2025-12-16T08:21:02.836800", "MEAN_MOTION": 13.48944142, "ECCENTRICITY": 0.00257394, "INCLINATION": 89.6481, "RA_OF_ASC_NODE": 78.4693, "ARG_OF_PERICENTER": 179.0889, "MEAN_ANOMALY": 250.1622, "EPHEMERIS_TYPE": 0, "CLASSIFICATION_TYPE": "U", "NORAD_CAT_ID": 10457, "ELEMENT_SET_NO": 999, "REV_AT_EPOCH": 36792, "BSTAR": 9.5234487e-05, "MEAN_MOTION_DOT": 7e-07, "MEAN_MOTION_DDOT": 0}, "tle": {"line1": "1 10457U 77106A   25350.34794950  .00000070  00000+0  95234-4 0  9997", "line2": "2 10457  89.6481  78.4693 0025739 179.0889 250.1622 13.48944142367925"}}, "geometry": {"type": "Point", "coordinates": [-100.96857051622742, -58.81437573211986]}}, {"type": "Feature", "properties": {"norad_id": 12458, "name": "NOVA 1", "group": "nnss", "lat": 63.91026084593356, "lon": -88.97463535555765, "alt_km": 1154.9379460930459, "timestamp": "2025-12-16T21:38:57.443032+00:00", "meta": {"OBJECT_NAME": "NOVA 1", "OBJECT_ID": "1981-044A", "EPOCH": "2025-12-16T08:42:02.496096", "MEAN_MOTION": 13.23278893, "ECCENTRICITY": 0.00159386, "INCLINATION": 89.8527, "RA_OF_ASC_NODE": 91.334, "ARG_OF_PERICENTER": 95.1312, "MEAN_ANOMALY": 332.1408, "EPHEMERIS_TYPE": 0, "CLASSIFICATION_TYPE": "U", "NORAD_CAT_ID": 12458, "ELEMENT_SET_NO": 999, "REV_AT_EPOCH": 15234, "BSTAR": 5.1202451e-05, "MEAN_MOTION_DOT": 3.1e-07, "MEAN_MOTION_DDOT": 0}, "tle": {"line1": "1 12458U 81044A   25350.36252889  .00000031  00000+0  51202-4 0  9992", "line2": "2 12458  89.8527  91.3340 0015938  95.1312 332.1408 13.23278893152340"}}, "geometry": {"type": "Point", "coordinates": [-88.97463535555765, 63.91026084593356]}}, {"type": "Feature", "properties": {"norad_id": 15362, "name": "NOVA 3", "group": "nnss", "lat": -14.809803647107213, "lon": 80.61610955568445, "alt_km": 1157.0707844264307, "timestamp": "2025-12-16T21:38:57.443043+00:00", "meta": {"OBJECT_NAME": "NOVA 3", "OBJECT_ID": "1984-110A", "EPOCH": "2025-12-16T07:31:19.708320", "MEAN_MOTION": 13.23044988, "ECCENTRICITY": 0.00302394, "INCLINATION": 90.1224, "RA_OF_ASC_NODE": 80.5768, "ARG_OF_PERICENTER": 321.7222, "MEAN_ANOMALY": 101.4286, "EPHEMERIS_TYPE": 0, "CLASSIFICATION_TYPE": "U", "NORAD_CAT_ID": 15362, "ELEMENT_SET_NO": 999, "REV_AT_EPOCH": 98746, "BSTAR": 0.000120567, "MEAN_MOTION_DOT": 5.9e-07, "MEAN_MOTION_DDOT": 0}, "tle": {"line1": "1 15362U 84110A   25350.31342255  .00000059  00000+0  12057-3 0  9992", "line2": "2 15362  90.1224  80.5768 0030239 321.7222 101.4286 13.23044988987465"}}, "geometry": {"type": "Point", "coordinates": [80.61610955568445, -14.809803647107213]}}, {"type": "Feature", "properties": {"norad_id": 15935, "name": "OSCAR 30", "group": "nnss", "lat": -80.69267134208067, "lon": -81.09477193935741, "alt_km": 1257.053893992852, "timestamp": "2025-12-16T21:38:57.443053+00:00", "meta": {"OBJECT_NAME": "OSCAR 30", "OBJECT_ID": "1985-066A", "EPOCH": "2025-12-16T08:04:57.860256", "MEAN_MOTION": 13.36078895, "ECCENTRICITY": 0.01693521, "INCLINATION": 90.1654, "RA_OF_ASC_NODE": 99.9059, "ARG_OF_PERICENTER": 73.8727, "MEAN_ANOMALY": 349.7866, "EPHEMERIS_TYPE": 0, "CLASSIFICATION_TYPE": "U", "NORAD_CAT_ID": 15935, "ELEMENT_SET_NO": 999, "REV_AT_EPOCH": 96501, "BSTAR": 0.0001229528, "MEAN_MOTION_DOT": 7.8e-07, "MEAN_MOTION_DDOT": 0}, "tle": {"line1": "1 15935U 85066A   25350.33678079  .00000078  00000+0  12295-3 0  9992", "line2": "2 15935  90.1654  99.9059 0169352  73.8727 349.7866 13.36078895965015"}}, "geometry": {"type": "Point", "coordinates": [-81.09477193935741, -80.69267134208067]}}, {"type": "Feature", "properties": {"norad_id": 15936, "name": "OSCAR 24", "group": "nnss", "lat": -27.81687957513948, "lon": 92.47350089695516, "alt_km": 1164.3826025924545, "timestamp": "2025-12-16T21:38:57.443064+00:00", "meta": {"OBJECT_NAME": "OSCAR 24", "OBJECT_ID": "1985-066B", "EPOCH": "2025-12-16T07:41:43.721088", "MEAN_MOTION": 13.35936296, "ECCENTRICITY": 0.01704438, "INCLINATION": 90.1791, "RA_OF_ASC_NODE": 92.3687, "ARG_OF_PERICENTER": 80.3485, "MEAN_ANOMALY": 339.2505, "EPHEMERIS_TYPE": 0, "CLASSIFICATION_TYPE": "U", "NORAD_CAT_ID": 15936, "ELEMENT_SET_NO": 999, "REV_AT_EPOCH": 96691, "BSTAR": 0.0001080672, "MEAN_MOTION_DOT": 7e-07, "MEAN_MOTION_DDOT": 0}, "tle": {"line1": "1 15936U 85066B   25350.32064492  .00000070  00000+0  10807-3 0  9999", "line2": "2 15936  90.1791  92.3687 0170443  80.3485 339.2505 13.35936296966910"}}, "geometry": {"type": "Point", "coordinates": [92.47350089695516, -27.81687957513948]}}]}